{"type": "FeatureCollection", "features": [ {"type": "Feature", "properties": {"norad_id": 40118, "name": "GAOFEN-2", "group": "resource", "lat": 22.618328283217146, "lon": -120.73403387961419, "alt_km": 625.0874455900985, "timestamp": "2025-12-22T16:55:17.107276+00:00", "meta": {"OBJECT_NAME": "GAOFEN-2", "OBJECT_ID": "2014-049A", "EPOCH": "2025-12-22T06:29:01.720320", "MEAN_MOTION": 14.80624665, "ECCENTRICITY": 0.00087736, "INCLINATION": 98.0375, "RA_OF_ASC_NODE": 55.4553, "ARG_OF_PERICENTER": 86.7911, "MEAN_ANOMALY": 273.4305, "EPHEMERIS_TYPE": 0, "CLASSIFICATION_TYPE": "U", "NORAD_CAT_ID": 40118, "ELEMENT_SET_NO": 999, "REV_AT_EPOCH": 61305, "BSTAR": 0.00012686741, "MEAN_MOTION_DOT": 9.21e-06, "MEAN_MOTION_DDOT": 0}, "tle": {"line1": "1 40118U 14049A   25356.27015880  .00000921  00000+0  12687-3 0  9992", "line2": "2 40118  98.0375  55.4553 0008773  86.7911 273.4305 14.80624665613053"}}, "geometry": {"type": "Point", "coordinates": [-120.73403387961419, 22.618328283217146]}}, {"type": "Feature", "properties": {"norad_id": 40143, "name": "YAOGAN-21", "group": "resource", "lat": -43.57926403831409, "lon": -147.2990736834728, "alt_km": 506.1639378531245, "timestamp": "2025-12-22T16:55:17.107286+00:00", "meta": {"OBJECT_NAME": "YAOGAN-21", "OBJECT_ID": "2014-053A", "EPOCH": "2025-12-22T06:29:06.428256", "MEAN_MOTION": 15.23763108, "ECCENTRICITY": 0.00087829, "INCLINATION": 97.174, "RA_OF_ASC_NODE": 39.169, "ARG_OF_PERICENTER": 10.2594, "MEAN_ANOMALY": 349.8821, "EPHEMERIS_TYPE": 0, "CLASSIFICATION_TYPE": "U", "NORAD_CAT_ID": 40143, "ELEMENT_SET_NO": 999, "REV_AT_EPOCH": 62799, "BSTAR": 0.00017105393, "MEAN_MOTION_DOT": 4.05e-05, "MEAN_MOTION_DDOT": 0}, "tle": {"line1": "1 40143U 14053A   25356.27021329  .00004050  00000+0  17105-3 0  9997", "line2": "2 40143  97.1740  39.1690 0008782  10.2594 349.8821 15.23763108627990"}}, "geometry": {"type": "Point", "coordinates": [-147.2990736834728, -43.57926403831409]}}, {"type": "Feature", "properties": {"norad_id": 40275, "name": "YAOGAN-22", "group": "resource", "lat": 17.235544439201888, "lon": -36.358677359999085, "alt_km": 1199.951995328055, "timestamp": "2025-12-22T16:55:17.107298+00:00", "meta": {"OBJECT_NAME": "YAOGAN-22", "OBJECT_ID": "2014-063A", "EPOCH": "2025-12-21T20:01:14.577600", "MEAN_MOTION": 13.15522949, "ECCENTRICITY": 0.00060434, "INCLINATION": 100.7428, "RA_OF_ASC_NODE": 139.3823, "ARG_OF_PERICENTER": 226.3916, "MEAN_ANOMALY": 133.6694, "EPHEMERIS_TYPE": 0, "CLASSIFICATION_TYPE": "U", "NORAD_CAT_ID": 40275, "ELEMENT_SET_NO": 999, "REV_AT_EPOCH": 53649, "BSTAR": 7.018864e-05, "MEAN_MOTION_DOT": -2e-07, "MEAN_MOTION_DDOT": 0}, "tle": {"line1": "1 40275U 14063A   25355.83419650 -.00000020  00000+0  70189-4 0  9999", "line2": "2 40275 100.7428 139.3823 0006043 226.3916 133.6694 13.15522949536493"}}, "geometry": {"type": "Point", "coordinates": [-36.358677359999085, 17.235544439201888]}}, {"type": "Feature", "properties": {"norad_id": 40298, "name": "ASNARO", "group": "resource", "lat": 55.18611154138542, "lon": -96.8718257264101, "alt_km": 498.09520542684095, "timestamp": "2025-12-22T16:55:17.107313+00:00", "meta": {"OBJECT_NAME": "ASNARO", "OBJECT_ID": "2014-070A", "EPOCH": "2025-12-22T05:18:56.951136", "MEAN_MOTION": 15.19679305, "ECCENTRICITY": 0.00057202, "INCLINATION": 97.3648, "RA_OF_ASC_NODE": 71.9367, "ARG_OF_PERICENTER": 97.4427, "MEAN_ANOMALY": 262.7458, "EPHEMERIS_TYPE": 0, "CLASSIFICATION_TYPE": "U", "NORAD_CAT_ID": 40298, "ELEMENT_SET_NO": 999, "REV_AT_EPOCH": 61713, "BSTAR": 0.00066494586, "MEAN_MOTION_DOT": 0.00014144, "MEAN_MOTION_DDOT": 0}, "tle": {"line1": "1 40298U 14070A   25356.22149249  .00014144  00000+0  66495-3 0  9995", "line2": "2 40298  97.3648  71.9367 0005720  97.4427 262.7458 15.19679305617130"}}, "geometry": {"type": "Point", "coordinates": [-96.8718257264101, 55.18611154138542]}}, {"type": "Feature", "properties": {"norad_id": 40310, "name": "YAOGAN-24", "group": "resource", "lat": -18.063121648104026, "lon": 130.52155989347312, "alt_km": 652.6652197137128, "timestamp": "2025-12-22T16:55:17.107323+00:00", "meta": {"OBJECT_NAME": "YAOGAN-24", "OBJECT_ID": "2014-072A", "EPOCH": "2025-12-22T07:14:35.920896", "MEAN_MOTION": 14.76193369, "ECCENTRICITY": 0.0015136, "INCLINATION": 98.1229, "RA_OF_ASC_NODE": 127.4464, "ARG_OF_PERICENTER": 109.3966, "MEAN_ANOMALY": 250.8881, "EPHEMERIS_TYPE": 0, "CLASSIFICATION_TYPE": "U", "NORAD_CAT_ID": 40310, "ELEMENT_SET_NO": 999, "REV_AT_EPOCH": 59762, "BSTAR": 3.9786764e-05, "MEAN_MOTION_DOT": 2.23e-06, "MEAN_MOTION_DDOT": 0}, "tle": {"line1": "1 40310U 14072A   25356.30180464  .00000223  00000+0  39787-4 0  9993", "line2": "2 40310  98.1229 127.4464 0015136 109.3966 250.8881 14.76193369597629"}}, "geometry": {"type": "Point", "coordinates": [130.52155989347312, -18.063121648104026]}}, {"type": "Feature", "properties": {"norad_id": 40336, "name": "CBERS 4", "group": "resource", "lat": 64.37778122483817, "lon": 36.59336830948927, "alt_km": 765.9508139925656, "timestamp": "2025-12-22T16:55:17.107333+00:00", "meta": {"OBJECT_NAME": "CBERS 4", "OBJECT_ID": "2014-079A", "EPOCH": "2025-12-22T06:34:46.504704", "MEAN_MOTION": 14.35521189, "ECCENTRICITY": 0.00018541, "INCLINATION": 98.3298, "RA_OF_ASC_NODE": 53.9647, "ARG_OF_PERICENTER": 102.0364, "MEAN_ANOMALY": 258.103, "EPHEMERIS_TYPE": 0, "CLASSIFICATION_TYPE": "U", "NORAD_CAT_ID": 40336, "ELEMENT_SET_NO": 999, "REV_AT_EPOCH": 57857, "BSTAR": 7.3000793e-05, "MEAN_MOTION_DOT": 1.68e-06, "MEAN_MOTION_DDOT": 0}, "tle": {"line1": "1 40336U 14079A   25356.27414936  .00000168  00000+0  73001-4 0  9993", "line2": "2 40336  98.3298  53.9647 0001854 102.0364 258.1030 14.35521189578575"}}, "geometry": {"type": "Point", "coordinates": [36.59336830948927, 64.37778122483817]}}, {"type": "Feature", "properties": {"norad_id": 40362, "name": "YAOGAN-26", "group": "resource", "lat": 36.90732687382371, "lon": -177.6310289913247, "alt_km": 447.3896562556574, "timestamp": "2025-12-22T16:55:17.107344+00:00", "meta": {"OBJECT_NAME": "YAOGAN-26", "OBJECT_ID": "2014-088A", "EPOCH": "2025-12-22T06:56:41.541216", "MEAN_MOTION": 15.39615977, "ECCENTRICITY": 0.00049518, "INCLINATION": 97.0636, "RA_OF_ASC_NODE": 356.6244, "ARG_OF_PERICENTER": 0.5352, "MEAN_ANOMALY": 359.5899, "EPHEMERIS_TYPE": 0, "CLASSIFICATION_TYPE": "U", "NORAD_CAT_ID": 40362, "ELEMENT_SET_NO": 999, "REV_AT_EPOCH": 61041, "BSTAR": 0.00053316792, "MEAN_MOTION_DOT": 0.00020966, "MEAN_MOTION_DDOT": 0}, "tle": {"line1": "1 40362U 14088A   25356.28936969  .00020966  00000+0  53317-3 0  9993", "line2": "2 40362  97.0636 356.6244 0004951   0.5352 359.5899 15.39615977610415"}}, "geometry": {"type": "Point", "coordinates": [-177.6310289913247, 36.90732687382371]}}, {"type": "Feature", "properties": {"norad_id": 40376, "name": "SMAP", "group": "resource", "lat": -5.561437276232591, "lon": -179.5121819381913, "alt_km": 686.1207326064605, "timestamp": "2025-12-22T16:55:17.107356+00:00", "meta": {"OBJECT_NAME": "SMAP", "OBJECT_ID": "2015-003A", "EPOCH": "2025-12-22T06:13:48.914688", "MEAN_MOTION": 14.63356464, "ECCENTRICITY": 0.00012293, "INCLINATION": 98.1289, "RA_OF_ASC_NODE": 0.8462, "ARG_OF_PERICENTER": 91.7597, "MEAN_ANOMALY": 268.3746, "EPHEMERIS_TYPE": 0, "CLASSIFICATION_TYPE": "U", "NORAD_CAT_ID": 40376, "ELEMENT_SET_NO": 999, "REV_AT_EPOCH": 58174, "BSTAR": 0.00010691183, "MEAN_MOTION_DOT": 5.05e-06, "MEAN_MOTION_DDOT": 0}, "tle": {"line1": "1 40376U 15003A   25356.25959392  .00000505  00000+0  10691-3 0  9993", "line2": "2 40376  98.1289   0.8462 0001229  91.7597 268.3746 14.63356464581744"}}, "geometry": {"type": "Point", "coordinates": [-179.5121819381913, -5.561437276232591]}}, {"type": "Feature", "properties": {"norad_id": 40536, "name": "KOMPSAT-3A", "group": "resource", "lat": -68.9726059025392, "lon": 131.05374183793023, "alt_km": 443.8765994551686, "timestamp": "2025-12-22T16:55:17.107366+00:00", "meta": {"OBJECT_NAME": "KOMPSAT-3A", "OBJECT_ID": "2015-014A", "EPOCH": "2025-12-22T06:30:36.988416", "MEAN_MOTION": 15.44274331, "ECCENTRICITY": 0.00055385, "INCLINATION": 97.6798, "RA_OF_ASC_NODE": 331.1463, "ARG_OF_PERICENTER": 105.842, "MEAN_ANOMALY": 254.3438, "EPHEMERIS_TYPE": 0, "CLASSIFICATION_TYPE": "U", "NORAD_CAT_ID": 40536, "ELEMENT_SET_NO": 999, "REV_AT_EPOCH": 59442, "BSTAR": 0.00045237292, "MEAN_MOTION_DOT": 0.00020755, "MEAN_MOTION_DDOT": 0}, "tle": {"line1": "1 40536U 15014A   25356.27126144  .00020755  00000+0  45237-3 0  9999", "line2": "2 40536  97.6798 331.1463 0005538 105.8420 254.3438 15.44274331594425"}}, "geometry": {"type": "Point", "coordinates": [131.05374183793023, -68.9726059025392]}}, {"type": "Feature", "properties": {"norad_id": 40697, "name": "SENTINEL-2A", "group": "resource", "lat": -31.308500357933095, "lon": 74.36298532505276, "alt_km": 795.4014445128532, "timestamp": "2025-12-22T16:55:17.107377+00:00", "meta": {"OBJECT_NAME": "SENTINEL-2A", "OBJECT_ID": "2015-028A", "EPOCH": "2025-12-22T06:59:57.456672", "MEAN_MOTION": 14.30808655, "ECCENTRICITY": 0.000107, "INCLINATION": 98.5739, "RA_OF_ASC_NODE": 68.6905, "ARG_OF_PERICENTER": 89.1988, "MEAN_ANOMALY": 270.9317, "EPHEMERIS_TYPE": 0, "CLASSIFICATION_TYPE": "U", "NORAD_CAT_ID": 40697, "ELEMENT_SET_NO": 999, "REV_AT_EPOCH": 54843, "BSTAR": 2.1488581e-05, "MEAN_MOTION_DOT": 1.3e-07, "MEAN_MOTION_DDOT": 0}, "tle": {"line1": "1 40697U 15028A   25356.29163723  .00000013  00000+0  21489-4 0  9997", "line2": "2 40697  98.5739  68.6905 0001070  89.1988 270.9317 14.30808655548437"}}, "geometry": {"type": "Point", "coordinates": [74.36298532505276, -31.308500357933095]}}]}